{"type": "FeatureCollection", "features": [{"type": "Feature", "properties": {"norad_id": 25590, "name": "COSMOS 2361", "group": "musson", "lat": -18.41083903760332, "lon": -24.90716992498412, "alt_km": 997.5205151688733, "timestamp": "2025-12-21T16:47:55.007999+00:00", "meta": {"OBJECT_NAME": "COSMOS 2361", "OBJECT_ID": "1998-076A", "EPOCH": "2025-12-21T12:14:07.609056", "MEAN_MOTION": 13.73218488, "ECCENTRICITY": 0.00302, "INCLINATION": 82.9341, "RA_OF_ASC_NODE": 337.5995, "ARG_OF_PERICENTER": 240.1953, "MEAN_ANOMALY": 241.6169, "EPHEMERIS_TYPE": 0, "CLASSIFICATION_TYPE": "U", "NORAD_CAT_ID": 25590, "ELEMENT_SET_NO": 999, "REV_AT_EPOCH": 35231, "BSTAR": 3.8356e-05, "MEAN_MOTION_DOT": 5e-07, "MEAN_MOTION_DDOT": 0}, "tle": {"line1": "1 25590U 98076A   25355.50981029  .00000050  00000+0  38356-4 0  9998", "line2": "2 25590  82.9341 337.5995 0030200 240.1953 241.6169 13.73218488352318"}}, "geometry": {"type": "Point", "coordinates": [-24.90716992498412, -18.41083903760332]}}, {"type": "Feature", "properties": {"norad_id": 26818, "name": "COSMOS 2378", "group": "musson", "lat": 80.22440582269618, "lon": 39.18478311143065, "alt_km": 980.0153426157649, "timestamp": "2025-12-21T16:47:55.008021+00:00", "meta": {"OBJECT_NAME": "COSMOS 2378", "OBJECT_ID": "2001-023A", "EPOCH": "2025-12-21T11:40:53.662080", "MEAN_MOTION": 13.74142657, "ECCENTRICITY": 0.0032939, "INCLINATION": 82.927, "RA_OF_ASC_NODE": 353.2385, "ARG_OF_PERICENTER": 180.3149, "MEAN_ANOMALY": 289.174, "EPHEMERIS_TYPE": 0, "CLASSIFICATION_TYPE": "U", "NORAD_CAT_ID": 26818, "ELEMENT_SET_NO": 999, "REV_AT_EPOCH": 23043, "BSTAR": 2.4373e-05, "MEAN_MOTION_DOT": 3.8e-07, "MEAN_MOTION_DDOT": 0}, "tle": {"line1": "1 26818U 01023A   25355.48673220  .00000038  00000+0  24373-4 0  9996", "line2": "2 26818  82.9270 353.2385 0032939 180.3149 289.1740 13.74142657230439"}}, "geometry": {"type": "Point", "coordinates": [39.18478311143065, 80.22440582269618]}}, {"type": "Feature", "properties": {"norad_id": 27436, "name": "COSMOS 2389", "group": "musson", "lat": -37.12797456233605, "lon": -65.02298059547442, "alt_km": 977.5041196278898, "timestamp": "2025-12-21T16:47:55.008035+00:00", "meta": {"OBJECT_NAME": "COSMOS 2389", "OBJECT_ID": "2002-026A", "EPOCH": "2025-12-21T05:18:49.493952", "MEAN_MOTION": 13.75155469, "ECCENTRICITY": 0.0047292, "INCLINATION": 82.951, "RA_OF_ASC_NODE": 300.7059, "ARG_OF_PERICENTER": 37.6336, "MEAN_ANOMALY": 77.8383, "EPHEMERIS_TYPE": 0, "CLASSIFICATION_TYPE": "U", "NORAD_CAT_ID": 27436, "ELEMENT_SET_NO": 999, "REV_AT_EPOCH": 18265, "BSTAR": 3.7349e-05, "MEAN_MOTION_DOT": 5.1e-07, "MEAN_MOTION_DDOT": 0}, "tle": {"line1": "1 27436U 02026A   25355.22140618  .00000051  00000+0  37349-4 0  9991", "line2": "2 27436  82.9510 300.7059 0047292  37.6336  77.8383 13.75155469182659"}}, "geometry": {"type": "Point", "coordinates": [-65.02298059547442, -37.12797456233605]}}, {"type": "Feature", "properties": {"norad_id": 27818, "name": "COSMOS 2398", "group": "musson", "lat": -7.0609932767665375, "lon": 86.97417018947438, "alt_km": 998.5316844125391, "timestamp": "2025-12-21T16:47:55.008046+00:00", "meta": {"OBJECT_NAME": "COSMOS 2398", "OBJECT_ID": "2003-023A", "EPOCH": "2025-12-21T07:43:49.370880", "MEAN_MOTION": 13.72386557, "ECCENTRICITY": 0.0032717, "INCLINATION": 82.9484, "RA_OF_ASC_NODE": 266.3741, "ARG_OF_PERICENTER": 88.927, "MEAN_ANOMALY": 31.9834, "EPHEMERIS_TYPE": 0, "CLASSIFICATION_TYPE": "U", "NORAD_CAT_ID": 27818, "ELEMENT_SET_NO": 999, "REV_AT_EPOCH": 12934, "BSTAR": 5.7986e-05, "MEAN_MOTION_DOT": 6.9e-07, "MEAN_MOTION_DDOT": 0}, "tle": {"line1": "1 27818U 03023A   25355.32209920  .00000069  00000+0  57986-4 0  9994", "line2": "2 27818  82.9484 266.3741 0032717  88.9270  31.9834 13.72386557129340"}}, "geometry": {"type": "Point", "coordinates": [86.97417018947438, -7.0609932767665375]}}, {"type": "Feature", "properties": {"norad_id": 28380, "name": "COSMOS 2407", "group": "musson", "lat": 30.3599325389187, "lon": 22.10760903398189, "alt_km": 989.4470666133057, "timestamp": "2025-12-21T16:47:55.008081+00:00", "meta": {"OBJECT_NAME": "COSMOS 2407", "OBJECT_ID": "2004-028A", "EPOCH": "2025-12-21T12:53:42.351072", "MEAN_MOTION": 13.76314681, "ECCENTRICITY": 0.0039921, "INCLINATION": 82.9597, "RA_OF_ASC_NODE": 206.379, "ARG_OF_PERICENTER": 30.8459, "MEAN_ANOMALY": 32.6281, "EPHEMERIS_TYPE": 0, "CLASSIFICATION_TYPE": "U", "NORAD_CAT_ID": 28380, "ELEMENT_SET_NO": 999, "REV_AT_EPOCH": 7544, "BSTAR": 5.4185e-05, "MEAN_MOTION_DOT": 6.9e-07, "MEAN_MOTION_DDOT": 0}, "tle": {"line1": "1 28380U 04028A   25355.53729573  .00000069  00000+0  54185-4 0  9997", "line2": "2 28380  82.9597 206.3790 0039921  30.8459  32.6281 13.76314681 75445"}}, "geometry": {"type": "Point", "coordinates": [22.10760903398189, 30.3599325389187]}}, {"type": "Feature", "properties": {"norad_id": 28521, "name": "COSMOS 2414", "group": "musson", "lat": 64.35604968450487, "lon": -167.17520301654733, "alt_km": 909.9959378313833, "timestamp": "2025-12-21T16:47:55.008107+00:00", "meta": {"OBJECT_NAME": "COSMOS 2414", "OBJECT_ID": "2005-002A", "EPOCH": "2025-12-21T11:17:41.625024", "MEAN_MOTION": 13.87904147, "ECCENTRICITY": 0.004131, "INCLINATION": 82.9488, "RA_OF_ASC_NODE": 178.0577, "ARG_OF_PERICENTER": 115.4283, "MEAN_ANOMALY": 245.1164, "EPHEMERIS_TYPE": 0, "CLASSIFICATION_TYPE": "U", "NORAD_CAT_ID": 28521, "ELEMENT_SET_NO": 999, "REV_AT_EPOCH": 5916, "BSTAR": 4.8465e-05, "MEAN_MOTION_DOT": 7.4e-07, "MEAN_MOTION_DDOT": 0}, "tle": {"line1": "1 28521U 05002A   25355.47062066  .00000074  00000+0  48465-4 0  9997", "line2": "2 28521  82.9488 178.0577 0041310 115.4283 245.1164 13.87904147 59165"}}, "geometry": {"type": "Point", "coordinates": [-167.17520301654733, 64.35604968450487]}}, {"type": "Feature", "properties": {"norad_id": 32052, "name": "COSMOS 2429", "group": "musson", "lat": 30.515153899203728, "lon": 152.53885165925078, "alt_km": 999.8900083284661, "timestamp": "2025-12-21T16:47:55.008121+00:00", "meta": {"OBJECT_NAME": "COSMOS 2429", "OBJECT_ID": "2007-038A", "EPOCH": "2025-12-21T10:50:20.528736", "MEAN_MOTION": 13.7515024, "ECCENTRICITY": 0.0038742, "INCLINATION": 82.9806, "RA_OF_ASC_NODE": 336.8861, "ARG_OF_PERICENTER": 13.9449, "MEAN_ANOMALY": 346.2768, "EPHEMERIS_TYPE": 0, "CLASSIFICATION_TYPE": "U", "NORAD_CAT_ID": 32052, "ELEMENT_SET_NO": 999, "REV_AT_EPOCH": 91722, "BSTAR": 3.5702e-05, "MEAN_MOTION_DOT": 5e-07, "MEAN_MOTION_DDOT": 0}, "tle": {"line1": "1 32052U 07038A   25355.45162649  .00000050  00000+0  35702-4 0  9992", "line2": "2 32052  82.9806 336.8861 0038742  13.9449 346.2768 13.75150240917221"}}, "geometry": {"type": "Point", "coordinates": [152.53885165925078, 30.515153899203728]}}, {"type": "Feature", "properties": {"norad_id": 35635, "name": "COSMOS 2454", "group": "musson", "lat": -1.4168472877744438, "lon": -17.97219995392222, "alt_km": 941.7615322657284, "timestamp": "2025-12-21T16:47:55.008132+00:00", "meta": {"OBJECT_NAME": "COSMOS 2454", "OBJECT_ID": "2009-039A", "EPOCH": "2025-12-21T12:45:18.930240", "MEAN_MOTION": 13.8992965, "ECCENTRICITY": 0.0020179, "INCLINATION": 82.9557, "RA_OF_ASC_NODE": 161.9803, "ARG_OF_PERICENTER": 50.1646, "MEAN_ANOMALY": 8.4587, "EPHEMERIS_TYPE": 0, "CLASSIFICATION_TYPE": "U", "NORAD_CAT_ID": 35635, "ELEMENT_SET_NO": 999, "REV_AT_EPOCH": 83272, "BSTAR": 3.08e-05, "MEAN_MOTION_DOT": 5.4e-07, "MEAN_MOTION_DDOT": 0}, "tle": {"line1": "1 35635U 09039A   25355.53146910  .00000054  00000+0  30800-4 0  9995", "line2": "2 35635  82.9557 161.9803 0020179  50.1646   8.4587 13.89929650832725"}}, "geometry": {"type": "Point", "coordinates": [-17.97219995392222, -1.4168472877744438]}}, {"type": "Feature", "properties": {"norad_id": 36519, "name": "COSMOS 2463", "group": "musson", "lat": -7.152617826796787, "lon": 19.23938896613408, "alt_km": 997.6219444502358, "timestamp": "2025-12-21T16:47:55.008142+00:00", "meta": {"OBJECT_NAME": "COSMOS 2463", "OBJECT_ID": "2010-017A", "EPOCH": "2025-12-21T12:08:15.115200", "MEAN_MOTION": 13.71649866, "ECCENTRICITY": 0.0034757, "INCLINATION": 82.9604, "RA_OF_ASC_NODE": 20.2705, "ARG_OF_PERICENTER": 262.8285, "MEAN_ANOMALY": 211.2151, "EPHEMERIS_TYPE": 0, "CLASSIFICATION_TYPE": "U", "NORAD_CAT_ID": 36519, "ELEMENT_SET_NO": 999, "REV_AT_EPOCH": 78357, "BSTAR": 4.0002e-05, "MEAN_MOTION_DOT": 5.1e-07, "MEAN_MOTION_DDOT": 0}, "tle": {"line1": "1 36519U 10017A   25355.50573050  .00000051  00000+0  40002-4 0  9993", "line2": "2 36519  82.9604  20.2705 0034757 262.8285 211.2151 13.71649866783574"}}, "geometry": {"type": "Point", "coordinates": [19.23938896613408, -7.152617826796787]}}]}